{
    "links": {
        "self": "http://www.neowsapp.com/rest/v1/neo/3698548?api_key=iIulBulltgU6a56xZRHN4H3l9WmuAYTsLGpBGhQ2"
    },
    "id": "3698548",
    "neo_reference_id": "3698548",
    "name": "(2014 HR198)",
    "designation": "2014 HR198",
    "nasa_jpl_url": "http://ssd.jpl.nasa.gov/sbdb.cgi?sstr=3698548",
    "absolute_magnitude_h": 28.5,
    "estimated_diameter": {
        "kilometers": {
            "estimated_diameter_min": 0.0053034072,
            "estimated_diameter_max": 0.0118587791
        },
        "meters": {
            "estimated_diameter_min": 5.3034072332,
            "estimated_diameter_max": 11.8587790858
        },
        "miles": {
            "estimated_diameter_min": 0.0032953835,
            "estimated_diameter_max": 0.0073687014
        },
        "feet": {
            "estimated_diameter_min": 17.3996305869,
            "estimated_diameter_max": 38.9067567758
        }
    },
    "is_potentially_hazardous_asteroid": false,
    "close_approach_data": [
        {
            "close_approach_date": "2014-05-24",
            "close_approach_date_full": "2014-May-24 17:42",
            "epoch_date_close_approach": 1400953320000,
            "relative_velocity": {
                "kilometers_per_second": "3.4009907145",
                "kilometers_per_hour": "12243.5665720623",
                "miles_per_hour": "7607.6761291795"
            },
            "miss_distance": {
                "astronomical": "0.0406700653",
                "lunar": "15.8206554017",
                "kilometers": "6084155.141640911",
                "miles": "3780518.7000341318"
            },
            "orbiting_body": "Earth"
        }
    ],
    "orbital_data": {
        "orbit_id": "6",
        "orbit_determination_date": "2017-04-06 08:40:47",
        "first_observation_date": "2014-04-28",
        "last_observation_date": "2014-05-02",
        "data_arc_in_days": 4,
        "observations_used": 23,
        "orbit_uncertainty": "9",
        "minimum_orbit_intersection": ".0335057",
        "jupiter_tisserand_invariant": "4.773",
        "epoch_osculation": "2456777.5",
        "eccentricity": ".2400709556704378",
        "semi_major_axis": "1.378713983078404",
        "inclination": "1.320004295038852",
        "ascending_node_longitude": "248.9218479489101",
        "orbital_period": "591.3024756360908",
        "perihelion_distance": "1.047724799564576",
        "perihelion_argument": "1.030112662504215",
        "aphelion_distance": "1.709703166592232",
        "perihelion_time": "2456807.729390755861",
        "mean_anomaly": "341.5955773558988",
        "mean_motion": ".6088254570771613",
        "equinox": "J2000",
        "orbit_class": {
            "orbit_class_type": "AMO",
            "orbit_class_description": "Near-Earth asteroid orbits similar to that of 1221 Amor",
            "orbit_class_range": "1.017 AU < q (perihelion) < 1.3 AU"
        }
    },
    "is_sentry_object": false
}